GLOBALSTAR M084         
1 38040U 11080A   24253.75405556 -.00000053  00000+0  28150-3 0  9995
2 38040  51.9997 182.2152 0000560  91.3649 302.4357 12.62267004587252
GLOBALSTAR M080         
1 38041U 11080B   24253.72639424 -.00000064  00000+0  22130-3 0  9990
2 38041  52.0051 183.8079 0000827  87.9093 300.0837 12.62265218587376
GLOBALSTAR M082         
1 38042U 11080C   24253.90976435 -.00000072  00000+0  17888-3 0  9990
2 38042  52.0070 138.6672 0000521  17.9284  63.8127 12.62266221588104
GLOBALSTAR M092         
1 38043U 11080D   24253.66544918 -.00000083  00000+0  11764-3 0  9990
2 38043  52.0064 229.7714 0000260  91.0872  80.0842 12.62265736586522
GLOBALSTAR M090         
1 38044U 11080E   24253.92122686 -.00000062  00000+0  23124-3 0  9994
2 38044  51.9877 132.8017 0000617  47.3230 326.4859 12.62267441588220
GLOBALSTAR M086         
1 38045U 11080F   24253.94767653 -.00000074  00000+0  16356-3 0  9998
2 38045  51.9892 133.2494 0001631  62.5462 312.1915 12.62266854588171
GLOBALSTAR M097         
1 39072U 13005A   24253.81292118 -.00000100  00000+0  20689-4 0  9998
2 39072  52.0056  47.9219 0000862  71.6214 288.4747 12.62270303535403
GLOBALSTAR M093         
1 39073U 13005B   24253.78599401 -.00000086  00000+0  98641-4 0  9996
2 39073  51.9827  41.7520 0000821  68.7321 291.3633 12.62263822535355
